SAC-D
1 37673U 11024A   13329.47750023 +.00000000 +00000+0 +13340-4 6  9259
2 37673  98.0130 334.6112 0001354  89.1431 133.4579 14.72363895131799
